SL-14 R/B               
1 16792U 86046B   26052.50732449  .00000371  00000+0  40019-4 0  9996
2 16792  82.4795  95.4763 0021568 282.1674  77.7126 14.85573163124008
SL-14 R/B               
1 16882U 86055B   26052.78425566  .00000433  00000+0  47081-4 0  9990
2 16882  82.5228 141.6209 0019548  29.0675  93.0080 14.85625629117000
AJISAI (EGS)            
1 16908U 86061A   26052.91474811 -.00000078  00000+0  13335-3 0  9998
2 16908  50.0086 141.8563 0011232 246.3538 271.3892 12.44515410466031
COSMOS 1812             
1 17295U 87003A   26052.93856502  .00495703  11384-3  72211-3 0  9999
2 17295  82.4738 213.6339 0004579 294.2682  65.8119 16.05183456141941
SL-14 R/B               
1 17567U 87024B   26052.61396528  .00000388  00000+0  41404-4 0  9997
2 17567  82.5270 107.8753 0017099 317.6009  42.3885 14.86115636 85740
COSMOS 1833             
1 17589U 87027A   26052.93262703 -.00000080  00000+0 -16866-4 0  9991
2 17589  70.9233 359.1325 0024813 236.1261 123.7500 14.13057201  8092
SL-16 R/B               
1 17590U 87027B   26052.95195244  .00000215  00000+0  13029-3 0  9995
2 17590  71.0037 309.6593 0004246 171.9242 188.1951 14.17165884 13113
SL-14 R/B               
1 17912U 87038B   26052.73538658  .00000394  00000+0  42964-4 0  9990
2 17912  82.5030 311.8356 0018280 213.7882 146.2170 14.85353200 76866
COSMOS 1844             
1 17973U 87041A   26052.56022895  .00000164  00000+0  10997-3 0  9998
2 17973  70.8984  68.1974 0029199  43.2518 317.0889 14.14551386  1301
SL-14 R/B               
1 18153U 87055B   26052.31101141  .00000529  00000+0  58085-4 0  9995
2 18153  82.5016   4.4637 0022211  69.1328 291.2263 14.85607116 67505
COSMOS 1867             
1 18187U 87060A   26052.93199055 -.00000049  00000+0  19219-4 0  9991
2 18187  65.0126 350.8323 0014273 277.7732  82.1732 14.31500261 17681
SL-14 R/B               
1 18749U 88001B   26052.50723552  .00000484  00000+0  53239-4 0  9991
2 18749  82.5120 210.5785 0016720 293.9076  66.0388 14.85505672 39623
