CCSDS_OMM_VERS = 2.0
CREATION_DATE  = 
ORIGINATOR     = 

OBJECT_NAME    = SL-14 R/B
OBJECT_ID      = 1986-046B
CENTER_NAME    = EARTH
REF_FRAME      = TEME
TIME_SYSTEM    = UTC
MEAN_ELEMENT_THEORY = SGP/SGP4

EPOCH          = 2026-02-21T12:10:32.835936
MEAN_MOTION    = 14.85573163
ECCENTRICITY   = .0021568
INCLINATION    = 82.4795
RA_OF_ASC_NODE = 95.4763
ARG_OF_PERICENTER = 282.1674
MEAN_ANOMALY   = 77.7126

EPHEMERIS_TYPE = 0
CLASSIFICATION_TYPE = U
NORAD_CAT_ID   = 16792
ELEMENT_SET_NO = 999
REV_AT_EPOCH   = 12400
BSTAR          = .40019E-4
MEAN_MOTION_DOT = .371E-5
MEAN_MOTION_DDOT = 0

CCSDS_OMM_VERS = 2.0
CREATION_DATE  = 
ORIGINATOR     = 

OBJECT_NAME    = SL-14 R/B
OBJECT_ID      = 1986-055B
CENTER_NAME    = EARTH
REF_FRAME      = TEME
TIME_SYSTEM    = UTC
MEAN_ELEMENT_THEORY = SGP/SGP4

EPOCH          = 2026-02-21T18:49:19.689024
MEAN_MOTION    = 14.85625629
ECCENTRICITY   = .00195488
INCLINATION    = 82.5228
RA_OF_ASC_NODE = 141.6209
ARG_OF_PERICENTER = 29.0675
MEAN_ANOMALY   = 93.0080

EPHEMERIS_TYPE = 0
CLASSIFICATION_TYPE = U
NORAD_CAT_ID   = 16882
ELEMENT_SET_NO = 999
REV_AT_EPOCH   = 11700
BSTAR          = .47081146E-4
MEAN_MOTION_DOT = .433E-5
MEAN_MOTION_DDOT = 0

CCSDS_OMM_VERS = 2.0
CREATION_DATE  = 
ORIGINATOR     = 

OBJECT_NAME    = AJISAI (EGS)
OBJECT_ID      = 1986-061A
CENTER_NAME    = EARTH
REF_FRAME      = TEME
TIME_SYSTEM    = UTC
MEAN_ELEMENT_THEORY = SGP/SGP4

EPOCH          = 2026-02-21T21:57:14.236704
MEAN_MOTION    = 12.44515410
ECCENTRICITY   = .00112327
INCLINATION    = 50.0086
RA_OF_ASC_NODE = 141.8563
ARG_OF_PERICENTER = 246.3538
MEAN_ANOMALY   = 271.3892

EPHEMERIS_TYPE = 0
CLASSIFICATION_TYPE = U
NORAD_CAT_ID   = 16908
ELEMENT_SET_NO = 999
REV_AT_EPOCH   = 46603
BSTAR          = .13334679E-3
MEAN_MOTION_DOT = -.78E-6
MEAN_MOTION_DDOT = 0

CCSDS_OMM_VERS = 2.0
CREATION_DATE  = 
ORIGINATOR     = 

OBJECT_NAME    = COSMOS 1812
OBJECT_ID      = 1987-003A
CENTER_NAME    = EARTH
REF_FRAME      = TEME
TIME_SYSTEM    = UTC
MEAN_ELEMENT_THEORY = SGP/SGP4

EPOCH          = 2026-02-21T22:31:32.017728
MEAN_MOTION    = 16.05183456
ECCENTRICITY   = .00045795
INCLINATION    = 82.4738
RA_OF_ASC_NODE = 213.6339
ARG_OF_PERICENTER = 294.2682
MEAN_ANOMALY   = 65.8119

EPHEMERIS_TYPE = 0
CLASSIFICATION_TYPE = U
NORAD_CAT_ID   = 17295
ELEMENT_SET_NO = 999
REV_AT_EPOCH   = 14194
BSTAR          = .72210818E-3
MEAN_MOTION_DOT = .495703E-2
MEAN_MOTION_DDOT = .1138353E-3

CCSDS_OMM_VERS = 2.0
CREATION_DATE  = 
ORIGINATOR     = 

OBJECT_NAME    = SL-14 R/B
OBJECT_ID      = 1987-024B
CENTER_NAME    = EARTH
REF_FRAME      = TEME
TIME_SYSTEM    = UTC
MEAN_ELEMENT_THEORY = SGP/SGP4

EPOCH          = 2026-02-21T14:44:06.600192
MEAN_MOTION    = 14.86115636
ECCENTRICITY   = .0017099
INCLINATION    = 82.5270
RA_OF_ASC_NODE = 107.8753
ARG_OF_PERICENTER = 317.6009
MEAN_ANOMALY   = 42.3885

EPHEMERIS_TYPE = 0
CLASSIFICATION_TYPE = U
NORAD_CAT_ID   = 17567
ELEMENT_SET_NO = 999
REV_AT_EPOCH   = 8574
BSTAR          = .41404E-4
MEAN_MOTION_DOT = .388E-5
MEAN_MOTION_DDOT = 0

CCSDS_OMM_VERS = 2.0
CREATION_DATE  = 
ORIGINATOR     = 

OBJECT_NAME    = COSMOS 1833
OBJECT_ID      = 1987-027A
CENTER_NAME    = EARTH
REF_FRAME      = TEME
TIME_SYSTEM    = UTC
MEAN_ELEMENT_THEORY = SGP/SGP4

EPOCH          = 2026-02-21T22:22:58.975392
MEAN_MOTION    = 14.13057201
ECCENTRICITY   = .00248131
INCLINATION    = 70.9233
RA_OF_ASC_NODE = 359.1325
ARG_OF_PERICENTER = 236.1261
MEAN_ANOMALY   = 123.7500

EPHEMERIS_TYPE = 0
CLASSIFICATION_TYPE = U
NORAD_CAT_ID   = 17589
ELEMENT_SET_NO = 999
REV_AT_EPOCH   = 809
BSTAR          = -.16865575E-4
MEAN_MOTION_DOT = -.8E-6
MEAN_MOTION_DDOT = 0

CCSDS_OMM_VERS = 2.0
CREATION_DATE  = 
ORIGINATOR     = 

OBJECT_NAME    = SL-16 R/B
OBJECT_ID      = 1987-027B
CENTER_NAME    = EARTH
REF_FRAME      = TEME
TIME_SYSTEM    = UTC
MEAN_ELEMENT_THEORY = SGP/SGP4

EPOCH          = 2026-02-21T22:50:48.690816
MEAN_MOTION    = 14.17165884
ECCENTRICITY   = .00042464
INCLINATION    = 71.0037
RA_OF_ASC_NODE = 309.6593
ARG_OF_PERICENTER = 171.9242
MEAN_ANOMALY   = 188.1951

EPHEMERIS_TYPE = 0
CLASSIFICATION_TYPE = U
NORAD_CAT_ID   = 17590
ELEMENT_SET_NO = 999
REV_AT_EPOCH   = 1311
BSTAR          = .13029423E-3
MEAN_MOTION_DOT = .215E-5
MEAN_MOTION_DDOT = 0

CCSDS_OMM_VERS = 2.0
CREATION_DATE  = 
ORIGINATOR     = 

OBJECT_NAME    = SL-14 R/B
OBJECT_ID      = 1987-038B
CENTER_NAME    = EARTH
REF_FRAME      = TEME
TIME_SYSTEM    = UTC
MEAN_ELEMENT_THEORY = SGP/SGP4

EPOCH          = 2026-02-21T17:38:57.400512
MEAN_MOTION    = 14.85353200
ECCENTRICITY   = .00182806
INCLINATION    = 82.5030
RA_OF_ASC_NODE = 311.8356
ARG_OF_PERICENTER = 213.7882
MEAN_ANOMALY   = 146.2170

EPHEMERIS_TYPE = 0
CLASSIFICATION_TYPE = U
NORAD_CAT_ID   = 17912
ELEMENT_SET_NO = 999
REV_AT_EPOCH   = 7686
BSTAR          = .42963573E-4
MEAN_MOTION_DOT = .394E-5
MEAN_MOTION_DDOT = 0

CCSDS_OMM_VERS = 2.0
CREATION_DATE  = 
ORIGINATOR     = 

OBJECT_NAME    = COSMOS 1844
OBJECT_ID      = 1987-041A
CENTER_NAME    = EARTH
REF_FRAME      = TEME
TIME_SYSTEM    = UTC
MEAN_ELEMENT_THEORY = SGP/SGP4

EPOCH          = 2026-02-21T13:26:43.781280
MEAN_MOTION    = 14.14551386
ECCENTRICITY   = .0029199
INCLINATION    = 70.8984
RA_OF_ASC_NODE = 68.1974
ARG_OF_PERICENTER = 43.2518
MEAN_ANOMALY   = 317.0889

EPHEMERIS_TYPE = 0
CLASSIFICATION_TYPE = U
NORAD_CAT_ID   = 17973
ELEMENT_SET_NO = 999
REV_AT_EPOCH   = 130
BSTAR          = .10997E-3
MEAN_MOTION_DOT = .164E-5
MEAN_MOTION_DDOT = 0

CCSDS_OMM_VERS = 2.0
CREATION_DATE  = 
ORIGINATOR     = 

OBJECT_NAME    = SL-14 R/B
OBJECT_ID      = 1987-055B
CENTER_NAME    = EARTH
REF_FRAME      = TEME
TIME_SYSTEM    = UTC
MEAN_ELEMENT_THEORY = SGP/SGP4

EPOCH          = 2026-02-21T07:27:51.385824
MEAN_MOTION    = 14.85607116
ECCENTRICITY   = .0022211
INCLINATION    = 82.5016
RA_OF_ASC_NODE = 4.4637
ARG_OF_PERICENTER = 69.1328
MEAN_ANOMALY   = 291.2263

EPHEMERIS_TYPE = 0
CLASSIFICATION_TYPE = U
NORAD_CAT_ID   = 18153
ELEMENT_SET_NO = 999
REV_AT_EPOCH   = 6750
BSTAR          = .58085E-4
MEAN_MOTION_DOT = .529E-5
MEAN_MOTION_DDOT = 0

CCSDS_OMM_VERS = 2.0
CREATION_DATE  = 
ORIGINATOR     = 

OBJECT_NAME    = COSMOS 1867
OBJECT_ID      = 1987-060A
CENTER_NAME    = EARTH
REF_FRAME      = TEME
TIME_SYSTEM    = UTC
MEAN_ELEMENT_THEORY = SGP/SGP4

EPOCH          = 2026-02-21T22:22:03.983520
MEAN_MOTION    = 14.31500261
ECCENTRICITY   = .00142738
INCLINATION    = 65.0126
RA_OF_ASC_NODE = 350.8323
ARG_OF_PERICENTER = 277.7732
MEAN_ANOMALY   = 82.1732

EPHEMERIS_TYPE = 0
CLASSIFICATION_TYPE = U
NORAD_CAT_ID   = 18187
ELEMENT_SET_NO = 999
REV_AT_EPOCH   = 1768
BSTAR          = .19219355E-4
MEAN_MOTION_DOT = -.49E-6
MEAN_MOTION_DDOT = 0

CCSDS_OMM_VERS = 2.0
CREATION_DATE  = 
ORIGINATOR     = 

OBJECT_NAME    = SL-14 R/B
OBJECT_ID      = 1988-001B
CENTER_NAME    = EARTH
REF_FRAME      = TEME
TIME_SYSTEM    = UTC
MEAN_ELEMENT_THEORY = SGP/SGP4

EPOCH          = 2026-02-21T12:10:25.148928
MEAN_MOTION    = 14.85505672
ECCENTRICITY   = .001672
INCLINATION    = 82.5120
RA_OF_ASC_NODE = 210.5785
ARG_OF_PERICENTER = 293.9076
MEAN_ANOMALY   = 66.0388

EPHEMERIS_TYPE = 0
CLASSIFICATION_TYPE = U
NORAD_CAT_ID   = 18749
ELEMENT_SET_NO = 999
REV_AT_EPOCH   = 3962
BSTAR          = .53239E-4
MEAN_MOTION_DOT = .484E-5
MEAN_MOTION_DDOT = 0

